HAWK-5A                 
1 52757U 22057AB  26164.94763557  .00019506  00000+0  33376-3 0  9992
2 52757  97.6592 323.5865 0005779  88.6497 271.5416 15.51287534225846
HAWK-6B                 
1 55324U 23011A   26164.90425663  .00005345  00000+0  23123-3 0  9990
2 55324  40.4995  11.2200 0002938 341.2395  18.8306 15.22907020187344
HAWK-6C                 
1 55326U 23011C   26164.83801009  .00004453  00000+0  19405-3 0  9993
2 55326  40.4992   8.4442 0003600 329.4805  30.5794 15.22903526187349
HAWK-6A                 
1 55327U 23011D   26164.83806553  .00004997  00000+0  21674-3 0  9997
2 55327  40.4994  10.0690 0003404 328.2172  31.8431 15.22903337187344
HAWK-7A                 
1 56191U 23054P   26164.63805713  .00005950  00000+0  22495-3 0  9991
2 56191  97.2709  52.0657 0004561  65.0294 295.1419 15.27326279176486
HAWK-7B                 
1 56193U 23054R   26164.96554832  .00003335  00000+0  12729-3 0  9996
2 56193  97.2742  50.6486 0003779  78.3906 281.7758 15.27324837176537
HAWK-7C                 
1 56200U 23054Y   26164.96544143  .00005984  00000+0  22622-3 0  9994
2 56200  97.2713  51.4176 0003893  66.7029 293.4619 15.27330068176532
